{"type": "FeatureCollection", "features": [ {"type": "Feature", "properties": {"norad_id": 66599, "name": "STARLINK-35930", "group": "last-30-days", "lat": -31.82129981013383, "lon": 162.33478481563333, "alt_km": 416.81754304419064, "timestamp": "2025-12-10T18:56:58.833609+00:00", "meta": {"OBJECT_NAME": "STARLINK-35930", "OBJECT_ID": "2025-270M", "EPOCH": "2025-12-10T12:00:02.998944", "MEAN_MOTION": 15.51026865, "ECCENTRICITY": 0.0002022, "INCLINATION": 42.9996, "RA_OF_ASC_NODE": 205.7834, "ARG_OF_PERICENTER": 260.7985, "MEAN_ANOMALY": 230.1861, "EPHEMERIS_TYPE": 0, "CLASSIFICATION_TYPE": "U", "NORAD_CAT_ID": 66599, "ELEMENT_SET_NO": 999, "REV_AT_EPOCH": 404, "BSTAR": -0.012458, "MEAN_MOTION_DOT": -0.00681694, "MEAN_MOTION_DDOT": 0}, "tle": {"line1": "1 66599U 25270M   25344.50003471 -.00681694  00000+0 -12458-1 0  9995", "line2": "2 66599  42.9996 205.7834 0002022 260.7985 230.1861 15.51026865  4046"}}, "geometry": {"type": "Point", "coordinates": [162.33478481563333, -31.82129981013383]}}, {"type": "Feature", "properties": {"norad_id": 66600, "name": "STARLINK-35980", "group": "last-30-days", "lat": -30.821608526982924, "lon": 164.27141672661426, "alt_km": 416.7528209519005, "timestamp": "2025-12-10T18:56:58.833619+00:00", "meta": {"OBJECT_NAME": "STARLINK-35980", "OBJECT_ID": "2025-270N", "EPOCH": "2025-12-10T12:00:02.998944", "MEAN_MOTION": 15.51123953, "ECCENTRICITY": 0.0002292, "INCLINATION": 42.9998, "RA_OF_ASC_NODE": 205.7781, "ARG_OF_PERICENTER": 257.6457, "MEAN_ANOMALY": 235.2265, "EPHEMERIS_TYPE": 0, "CLASSIFICATION_TYPE": "U", "NORAD_CAT_ID": 66600, "ELEMENT_SET_NO": 999, "REV_AT_EPOCH": 394, "BSTAR": -0.015452, "MEAN_MOTION_DOT": -0.0084461, "MEAN_MOTION_DDOT": 0}, "tle": {"line1": "1 66600U 25270N   25344.50003471 -.00844610  00000+0 -15452-1 0  9994", "line2": "2 66600  42.9998 205.7781 0002292 257.6457 235.2265 15.51123953  3948"}}, "geometry": {"type": "Point", "coordinates": [164.27141672661426, -30.821608526982924]}}, {"type": "Feature", "properties": {"norad_id": 66601, "name": "STARLINK-35978", "group": "last-30-days", "lat": -29.817393403863868, "lon": 166.12514579906974, "alt_km": 416.8376434459069, "timestamp": "2025-12-10T18:56:58.833631+00:00", "meta": {"OBJECT_NAME": "STARLINK-35978", "OBJECT_ID": "2025-270P", "EPOCH": "2025-12-10T12:00:02.998944", "MEAN_MOTION": 15.51054321, "ECCENTRICITY": 0.0002099, "INCLINATION": 42.9998, "RA_OF_ASC_NODE": 205.7737, "ARG_OF_PERICENTER": 254.6801, "MEAN_ANOMALY": 240.1162, "EPHEMERIS_TYPE": 0, "CLASSIFICATION_TYPE": "U", "NORAD_CAT_ID": 66601, "ELEMENT_SET_NO": 999, "REV_AT_EPOCH": 388, "BSTAR": -0.013021, "MEAN_MOTION_DOT": -0.00719651, "MEAN_MOTION_DDOT": 0}, "tle": {"line1": "1 66601U 25270P   25344.50003471 -.00719651  00000+0 -13021-1 0  9991", "line2": "2 66601  42.9998 205.7737 0002099 254.6801 240.1162 15.51054321  3881"}}, "geometry": {"type": "Point", "coordinates": [166.12514579906974, -29.817393403863868]}}, {"type": "Feature", "properties": {"norad_id": 66602, "name": "STARLINK-36050", "group": "last-30-days", "lat": -28.774768010362187, "lon": 167.9628812388152, "alt_km": 416.7875087805842, "timestamp": "2025-12-10T18:56:58.833655+00:00", "meta": {"OBJECT_NAME": "STARLINK-36050", "OBJECT_ID": "2025-270Q", "EPOCH": "2025-12-10T12:00:02.998944", "MEAN_MOTION": 15.5104464, "ECCENTRICITY": 0.0001969, "INCLINATION": 42.9998, "RA_OF_ASC_NODE": 205.7684, "ARG_OF_PERICENTER": 258.6235, "MEAN_ANOMALY": 238.0996, "EPHEMERIS_TYPE": 0, "CLASSIFICATION_TYPE": "U", "NORAD_CAT_ID": 66602, "ELEMENT_SET_NO": 999, "REV_AT_EPOCH": 394, "BSTAR": -0.01286, "MEAN_MOTION_DOT": -0.00702274, "MEAN_MOTION_DDOT": 0}, "tle": {"line1": "1 66602U 25270Q   25344.50003471 -.00702274  00000+0 -12860-1 0  9995", "line2": "2 66602  42.9998 205.7684 0001969 258.6235 238.0996 15.51044640  3944"}}, "geometry": {"type": "Point", "coordinates": [167.9628812388152, -28.774768010362187]}}, {"type": "Feature", "properties": {"norad_id": 66603, "name": "STARLINK-36048", "group": "last-30-days", "lat": -27.715094425518984, "lon": 169.75120287235458, "alt_km": 417.1643201785746, "timestamp": "2025-12-10T18:56:58.833666+00:00", "meta": {"OBJECT_NAME": "STARLINK-36048", "OBJECT_ID": "2025-270R", "EPOCH": "2025-12-10T12:00:02.998944", "MEAN_MOTION": 15.51055336, "ECCENTRICITY": 0.0001849, "INCLINATION": 42.9997, "RA_OF_ASC_NODE": 205.7631, "ARG_OF_PERICENTER": 244.1324, "MEAN_ANOMALY": 254.4982, "EPHEMERIS_TYPE": 0, "CLASSIFICATION_TYPE": "U", "NORAD_CAT_ID": 66603, "ELEMENT_SET_NO": 999, "REV_AT_EPOCH": 394, "BSTAR": -0.013763, "MEAN_MOTION_DOT": -0.00757506, "MEAN_MOTION_DDOT": 0}, "tle": {"line1": "1 66603U 25270R   25344.50003471 -.00757506  00000+0 -13763-1 0  9997", "line2": "2 66603  42.9997 205.7631 0001849 244.1324 254.4982 15.51055336  3943"}}, "geometry": {"type": "Point", "coordinates": [169.75120287235458, -27.715094425518984]}}, {"type": "Feature", "properties": {"norad_id": 66604, "name": "STARLINK-35977", "group": "last-30-days", "lat": -26.62614530449275, "lon": 171.51557189555524, "alt_km": 417.09645213816293, "timestamp": "2025-12-10T18:56:58.833677+00:00", "meta": {"OBJECT_NAME": "STARLINK-35977", "OBJECT_ID": "2025-270S", "EPOCH": "2025-12-10T12:00:02.998944", "MEAN_MOTION": 15.5104998, "ECCENTRICITY": 0.0001756, "INCLINATION": 42.9996, "RA_OF_ASC_NODE": 205.7582, "ARG_OF_PERICENTER": 246.5594, "MEAN_ANOMALY": 253.9909, "EPHEMERIS_TYPE": 0, "CLASSIFICATION_TYPE": "U", "NORAD_CAT_ID": 66604, "ELEMENT_SET_NO": 999, "REV_AT_EPOCH": 404, "BSTAR": -0.013606, "MEAN_MOTION_DOT": -0.00749354, "MEAN_MOTION_DDOT": 0}, "tle": {"line1": "1 66604U 25270S   25344.50003471 -.00749354  00000+0 -13606-1 0  9996", "line2": "2 66604  42.9996 205.7582 0001756 246.5594 253.9909 15.51049980  4043"}}, "geometry": {"type": "Point", "coordinates": [171.51557189555524, -26.62614530449275]}}, {"type": "Feature", "properties": {"norad_id": 66605, "name": "STARLINK-36052", "group": "last-30-days", "lat": -25.50484760464951, "lon": 173.26390365595842, "alt_km": 416.7141737946795, "timestamp": "2025-12-10T18:56:58.833686+00:00", "meta": {"OBJECT_NAME": "STARLINK-36052", "OBJECT_ID": "2025-270T", "EPOCH": "2025-12-10T12:00:02.998944", "MEAN_MOTION": 15.51062882, "ECCENTRICITY": 0.000205, "INCLINATION": 42.9997, "RA_OF_ASC_NODE": 205.7541, "ARG_OF_PERICENTER": 255.3644, "MEAN_ANOMALY": 247.0997, "EPHEMERIS_TYPE": 0, "CLASSIFICATION_TYPE": "U", "NORAD_CAT_ID": 66605, "ELEMENT_SET_NO": 999, "REV_AT_EPOCH": 404, "BSTAR": -0.013304, "MEAN_MOTION_DOT": -0.00734336, "MEAN_MOTION_DDOT": 0}, "tle": {"line1": "1 66605U 25270T   25344.50003471 -.00734336  00000+0 -13304-1 0  9996", "line2": "2 66605  42.9997 205.7541 0002050 255.3644 247.0997 15.51062882  4049"}}, "geometry": {"type": "Point", "coordinates": [173.26390365595842, -25.50484760464951]}}, {"type": "Feature", "properties": {"norad_id": 66606, "name": "STARLINK-36063", "group": "last-30-days", "lat": -23.23195102545223, "lon": 176.61962114127462, "alt_km": 416.9315707597516, "timestamp": "2025-12-10T18:56:58.833697+00:00", "meta": {"OBJECT_NAME": "STARLINK-36063", "OBJECT_ID": "2025-270U", "EPOCH": "2025-12-10T12:00:02.998944", "MEAN_MOTION": 15.51052372, "ECCENTRICITY": 0.0001764, "INCLINATION": 42.9999, "RA_OF_ASC_NODE": 205.7437, "ARG_OF_PERICENTER": 247.6746, "MEAN_ANOMALY": 258.6275, "EPHEMERIS_TYPE": 0, "CLASSIFICATION_TYPE": "U", "NORAD_CAT_ID": 66606, "ELEMENT_SET_NO": 999, "REV_AT_EPOCH": 404, "BSTAR": -0.013634, "MEAN_MOTION_DOT": -0.00750835, "MEAN_MOTION_DDOT": 0}, "tle": {"line1": "1 66606U 25270U   25344.50003471 -.00750835  00000+0 -13634-1 0  9995", "line2": "2 66606  42.9999 205.7437 0001764 247.6746 258.6275 15.51052372  4044"}}, "geometry": {"type": "Point", "coordinates": [176.61962114127462, -23.23195102545223]}}, {"type": "Feature", "properties": {"norad_id": 66607, "name": "STARLINK-35993", "group": "last-30-days", "lat": -24.37400093228852, "lon": 174.96260738123522, "alt_km": 416.6687231441265, "timestamp": "2025-12-10T18:56:58.833706+00:00", "meta": {"OBJECT_NAME": "STARLINK-35993", "OBJECT_ID": "2025-270V", "EPOCH": "2025-12-10T12:00:02.998944", "MEAN_MOTION": 15.51063045, "ECCENTRICITY": 0.0001998, "INCLINATION": 42.9996, "RA_OF_ASC_NODE": 205.7494, "ARG_OF_PERICENTER": 256.1177, "MEAN_ANOMALY": 248.2623, "EPHEMERIS_TYPE": 0, "CLASSIFICATION_TYPE": "U", "NORAD_CAT_ID": 66607, "ELEMENT_SET_NO": 999, "REV_AT_EPOCH": 394, "BSTAR": -0.013291, "MEAN_MOTION_DOT": -0.00733664, "MEAN_MOTION_DDOT": 0}, "tle": {"line1": "1 66607U 25270V   25344.50003471 -.00733664  00000+0 -13291-1 0  9996", "line2": "2 66607  42.9996 205.7494 0001998 256.1177 248.2623 15.51063045  3946"}}, "geometry": {"type": "Point", "coordinates": [174.96260738123522, -24.37400093228852]}}, {"type": "Feature", "properties": {"norad_id": 66608, "name": "STARLINK-36036", "group": "last-30-days", "lat": -22.063918200631285, "lon": 178.26064504117596, "alt_km": 416.90414983168466, "timestamp": "2025-12-10T18:56:58.833716+00:00", "meta": {"OBJECT_NAME": "STARLINK-36036", "OBJECT_ID": "2025-270W", "EPOCH": "2025-12-10T12:00:02.998944", "MEAN_MOTION": 15.51057279, "ECCENTRICITY": 0.0001777, "INCLINATION": 42.9997, "RA_OF_ASC_NODE": 205.7388, "ARG_OF_PERICENTER": 246.8612, "MEAN_ANOMALY": 261.3573, "EPHEMERIS_TYPE": 0, "CLASSIFICATION_TYPE": "U", "NORAD_CAT_ID": 66608, "ELEMENT_SET_NO": 999, "REV_AT_EPOCH": 388, "BSTAR": -0.013872, "MEAN_MOTION_DOT": -0.00763084, "MEAN_MOTION_DDOT": 0}, "tle": {"line1": "1 66608U 25270W   25344.50003471 -.00763084  00000+0 -13872-1 0  9991", "line2": "2 66608  42.9997 205.7388 0001777 246.8612 261.3573 15.51057279  3880"}}, "geometry": {"type": "Point", "coordinates": [178.26064504117596, -22.063918200631285]}}]}